{"fetched_at":"2026-07-20T18:29:21.553Z","source":"https://celestrak.org/NORAD/elements/gp.php?NAME=GHGSAT&FORMAT=JSON","constellation":"ghgsat","records":[{"OBJECT_NAME":"GHGSAT-C1","OBJECT_ID":"2020-061G","EPOCH":"2026-07-20T06:02:13.842240","CLASSIFICATION_TYPE":"U","MEAN_MOTION":15.73722889,"ECCENTRICITY":0.00014617,"INCLINATION":97.2083,"RA_OF_ASC_NODE":287.5195,"ARG_OF_PERICENTER":171.5459,"MEAN_ANOMALY":188.5831,"EPHEMERIS_TYPE":0,"NORAD_CAT_ID":46278,"ELEMENT_SET_NO":999,"REV_AT_EPOCH":32867,"BSTAR":0.00019291825,"MEAN_MOTION_DOT":0.00026977,"MEAN_MOTION_DDOT":0},{"OBJECT_NAME":"GHGSAT-C2","OBJECT_ID":"2021-006DA","EPOCH":"2026-07-20T01:42:32.937984","CLASSIFICATION_TYPE":"U","MEAN_MOTION":15.38142039,"ECCENTRICITY":0.00064579,"INCLINATION":97.2126,"RA_OF_ASC_NODE":247.7762,"ARG_OF_PERICENTER":62.4069,"MEAN_ANOMALY":297.7832,"EPHEMERIS_TYPE":0,"NORAD_CAT_ID":47509,"ELEMENT_SET_NO":999,"REV_AT_EPOCH":30490,"BSTAR":0.000094958489,"MEAN_MOTION_DOT":0.00003487,"MEAN_MOTION_DDOT":0},{"OBJECT_NAME":"GHGSAT-C3","OBJECT_ID":"2022-057F","EPOCH":"2026-07-20T07:11:05.688960","CLASSIFICATION_TYPE":"U","MEAN_MOTION":15.3471639,"ECCENTRICITY":0.0005849,"INCLINATION":97.6641,"RA_OF_ASC_NODE":348.2131,"ARG_OF_PERICENTER":18.5685,"MEAN_ANOMALY":341.577,"EPHEMERIS_TYPE":0,"NORAD_CAT_ID":52737,"ELEMENT_SET_NO":999,"REV_AT_EPOCH":23061,"BSTAR":0.00011561901,"MEAN_MOTION_DOT":0.00003806,"MEAN_MOTION_DDOT":0},{"OBJECT_NAME":"GHGSAT-C5","OBJECT_ID":"2022-057N","EPOCH":"2026-07-20T08:07:51.710880","CLASSIFICATION_TYPE":"U","MEAN_MOTION":15.34692754,"ECCENTRICITY":0.00065501,"INCLINATION":97.6727,"RA_OF_ASC_NODE":349.8661,"ARG_OF_PERICENTER":15.3271,"MEAN_ANOMALY":344.8169,"EPHEMERIS_TYPE":0,"NORAD_CAT_ID":52744,"ELEMENT_SET_NO":999,"REV_AT_EPOCH":23062,"BSTAR":0.00011476966,"MEAN_MOTION_DOT":0.00003774,"MEAN_MOTION_DDOT":0},{"OBJECT_NAME":"GHGSAT-C4","OBJECT_ID":"2022-057Q","EPOCH":"2026-07-20T06:07:06.701088","CLASSIFICATION_TYPE":"U","MEAN_MOTION":15.3470246,"ECCENTRICITY":0.00056578,"INCLINATION":97.6567,"RA_OF_ASC_NODE":346.9648,"ARG_OF_PERICENTER":1.4165,"MEAN_ANOMALY":358.7093,"EPHEMERIS_TYPE":0,"NORAD_CAT_ID":52746,"ELEMENT_SET_NO":999,"REV_AT_EPOCH":23061,"BSTAR":0.00011327616,"MEAN_MOTION_DOT":0.00003725,"MEAN_MOTION_DDOT":0},{"OBJECT_NAME":"GHGSAT-C8","OBJECT_ID":"2023-054J","EPOCH":"2026-07-20T04:56:32.296704","CLASSIFICATION_TYPE":"U","MEAN_MOTION":15.53866109,"ECCENTRICITY":0.0002181,"INCLINATION":97.2946,"RA_OF_ASC_NODE":111.0091,"ARG_OF_PERICENTER":340.8446,"MEAN_ANOMALY":19.2725,"EPHEMERIS_TYPE":0,"NORAD_CAT_ID":56186,"ELEMENT_SET_NO":999,"REV_AT_EPOCH":18356,"BSTAR":0.00014849947,"MEAN_MOTION_DOT":0.00009454,"MEAN_MOTION_DDOT":0},{"OBJECT_NAME":"GHGSAT-C6","OBJECT_ID":"2023-054AC","EPOCH":"2026-07-20T04:08:00.485376","CLASSIFICATION_TYPE":"U","MEAN_MOTION":15.53840387,"ECCENTRICITY":0.00031505,"INCLINATION":97.3007,"RA_OF_ASC_NODE":111.682,"ARG_OF_PERICENTER":276.2651,"MEAN_ANOMALY":83.8244,"EPHEMERIS_TYPE":0,"NORAD_CAT_ID":56204,"ELEMENT_SET_NO":999,"REV_AT_EPOCH":18357,"BSTAR":0.00015028495,"MEAN_MOTION_DOT":0.00009561,"MEAN_MOTION_DDOT":0},{"OBJECT_NAME":"GHGSAT-C7","OBJECT_ID":"2023-054AH","EPOCH":"2026-07-20T04:21:22.033728","CLASSIFICATION_TYPE":"U","MEAN_MOTION":15.50511033,"ECCENTRICITY":0.00048101,"INCLINATION":97.2959,"RA_OF_ASC_NODE":109.9804,"ARG_OF_PERICENTER":278.6948,"MEAN_ANOMALY":81.3759,"EPHEMERIS_TYPE":0,"NORAD_CAT_ID":56209,"ELEMENT_SET_NO":999,"REV_AT_EPOCH":18350,"BSTAR":0.000128893,"MEAN_MOTION_DOT":0.0000726,"MEAN_MOTION_DDOT":0},{"OBJECT_NAME":"GHGSAT-C12","OBJECT_ID":"2025-135B","EPOCH":"2026-07-20T06:53:40.581600","CLASSIFICATION_TYPE":"U","MEAN_MOTION":15.20464247,"ECCENTRICITY":0.00062423,"INCLINATION":97.4773,"RA_OF_ASC_NODE":315.8093,"ARG_OF_PERICENTER":67.469,"MEAN_ANOMALY":292.7206,"EPHEMERIS_TYPE":0,"NORAD_CAT_ID":64529,"ELEMENT_SET_NO":999,"REV_AT_EPOCH":5985,"BSTAR":0.000088744815,"MEAN_MOTION_DOT":0.00001868,"MEAN_MOTION_DDOT":0},{"OBJECT_NAME":"GHGSAT-C13","OBJECT_ID":"2025-135W","EPOCH":"2026-07-20T06:31:22.224000","CLASSIFICATION_TYPE":"U","MEAN_MOTION":15.21434329,"ECCENTRICITY":0.00016484,"INCLINATION":97.4802,"RA_OF_ASC_NODE":316.4188,"ARG_OF_PERICENTER":64.1521,"MEAN_ANOMALY":295.9885,"EPHEMERIS_TYPE":0,"NORAD_CAT_ID":64548,"ELEMENT_SET_NO":999,"REV_AT_EPOCH":5988,"BSTAR":0.00014526981,"MEAN_MOTION_DOT":0.00003192,"MEAN_MOTION_DDOT":0}]}
