GHGSAT-C1               
1 46278U 20061G   26201.25154910  .00026977  00000+0  19292-3 0  9990
2 46278  97.2083 287.5195 0001461 171.5459 188.5831 15.73722889328671
GHGSAT-C2               
1 47509U 21006DA  26201.07121456  .00003487  00000+0  94958-4 0  9991
2 47509  97.2126 247.7762 0006457  62.4069 297.7832 15.38142039304908
GHGSAT-C3               
1 52737U 22057F   26201.29937140  .00003806  00000+0  11562-3 0  9990
2 52737  97.6641 348.2131 0005849  18.5685 341.5770 15.34716390230618
GHGSAT-C5               
1 52744U 22057N   26201.33879295  .00003774  00000+0  11477-3 0  9998
2 52744  97.6727 349.8661 0006550  15.3271 344.8169 15.34692754230628
GHGSAT-C4               
1 52746U 22057Q   26201.25493867  .00003725  00000+0  11328-3 0  9999
2 52746  97.6567 346.9648 0005657   1.4165 358.7093 15.34702460230615
GHGSAT-C8               
1 56186U 23054J   26201.20592936  .00009454  00000+0  14850-3 0  9999
2 56186  97.2946 111.0091 0002181 340.8446  19.2725 15.53866109183562
GHGSAT-C6               
1 56204U 23054AC  26201.17222784  .00009561  00000+0  15028-3 0  9994
2 56204  97.3007 111.6820 0003150 276.2651  83.8244 15.53840387183579
GHGSAT-C7               
1 56209U 23054AH  26201.18150502  .00007260  00000+0  12889-3 0  9994
2 56209  97.2959 109.9804 0004810 278.6948  81.3759 15.50511033183507
GHGSAT-C12              
1 64529U 25135B   26201.28727525  .00001868  00000+0  88745-4 0  9999
2 64529  97.4773 315.8093 0006242  67.4690 292.7206 15.20464247 59850
GHGSAT-C13              
1 64548U 25135W   26201.27178500  .00003192  00000+0  14527-3 0  9990
2 64548  97.4802 316.4188 0001648  64.1521 295.9885 15.21434329 59888
